{"fetched_at":"2026-04-01T16:59:04Z","count":11445,"tles":[{"name":"STARLINK-36380","line1":"1 68344U 26059Z   26090.66668981 -.01978563  00000+0 -10483-1 0  9991","line2":"2 68344  53.1592 252.5705 0000761  67.0637 229.5322 15.82936644  2578","category":"Starlink"}]}